STARLINK-31084          
1 58630U 23203N   26068.06230176  .00000119  00000+0  13849-4 0  9998
2 58630  43.0074  74.2277 0001867 288.8241  71.2408 15.27573980123427
PHISAT 2                
1 60470U 24149C   26068.78834181  .00008925  00000+0  31421-3 0  9996
2 60470  97.3806 148.6498 0001175 168.6230 191.5037 15.29548631 86792
